[{"OBJECT_NAME":"STARLINK-4620","OBJECT_ID":"2022-105AC","EPOCH":"2026-03-03T04:56:05.421984","MEAN_MOTION":15.01261655,"ECCENTRICITY":0.0004147,"INCLINATION":97.6022,"RA_OF_ASC_NODE":303.868,"ARG_OF_PERICENTER":49.5246,"MEAN_ANOMALY":310.634,"EPHEMERIS_TYPE":0,"CLASSIFICATION_TYPE":"U","NORAD_CAT_ID":53674,"ELEMENT_SET_NO":999,"REV_AT_EPOCH":19226,"BSTAR":1.4237e-5,"MEAN_MOTION_DOT":1.24e-6,"MEAN_MOTION_DDOT":0},{"OBJECT_NAME":"STARLINK-4617","OBJECT_ID":"2022-105AD","EPOCH":"2026-03-03T05:13:09.408864","MEAN_MOTION":15.05658368,"ECCENTRICITY":0.0002279,"INCLINATION":97.6022,"RA_OF_ASC_NODE":304.9058,"ARG_OF_PERICENTER":78.1302,"MEAN_ANOMALY":282.018,"EPHEMERIS_TYPE":0,"CLASSIFICATION_TYPE":"U","NORAD_CAT_ID":53675,"ELEMENT_SET_NO":999,"REV_AT_EPOCH":19233,"BSTAR":9.2362e-5,"MEAN_MOTION_DOT":1.272e-5,"MEAN_MOTION_DDOT":0},{"OBJECT_NAME":"STARLINK-4621","OBJECT_ID":"2022-105AE","EPOCH":"2026-03-03T04:50:45.361824","MEAN_MOTION":15.01261169,"ECCENTRICITY":0.0003624,"INCLINATION":97.6009,"RA_OF_ASC_NODE":303.862,"ARG_OF_PERICENTER":36.7369,"MEAN_ANOMALY":323.4103,"EPHEMERIS_TYPE":0,"CLASSIFICATION_TYPE":"U","NORAD_CAT_ID":53676,"ELEMENT_SET_NO":999,"REV_AT_EPOCH":19226,"BSTAR":1.7775e-5,"MEAN_MOTION_DOT":1.7e-6,"MEAN_MOTION_DDOT":0},{"OBJECT_NAME":"STARLINK-4579","OBJECT_ID":"2022-105AF","EPOCH":"2026-03-03T05:49:01.597440","MEAN_MOTION":15.05647618,"ECCENTRICITY":0.0001975,"INCLINATION":97.602,"RA_OF_ASC_NODE":304.8776,"ARG_OF_PERICENTER":87.7039,"MEAN_ANOMALY":272.4413,"EPHEMERIS_TYPE":0,"CLASSIFICATION_TYPE":"U","NORAD_CAT_ID":53677,"ELEMENT_SET_NO":999,"REV_AT_EPOCH":19233,"BSTAR":1.1196e-6,"MEAN_MOTION_DOT":-4.5e-7,"MEAN_MOTION_DDOT":0},{"OBJECT_NAME":"STARLINK-4632","OBJECT_ID":"2022-105AH","EPOCH":"2026-03-03T05:01:12.377856","MEAN_MOTION":15.05635785,"ECCENTRICITY":0.0002462,"INCLINATION":97.6031,"RA_OF_ASC_NODE":304.914,"ARG_OF_PERICENTER":78.5493,"MEAN_ANOMALY":281.601,"EPHEMERIS_TYPE":0,"CLASSIFICATION_TYPE":"U","NORAD_CAT_ID":53679,"ELEMENT_SET_NO":999,"REV_AT_EPOCH":19233,"BSTAR":-5.3244e-5,"MEAN_MOTION_DOT":-8.29e-6,"MEAN_MOTION_DDOT":0},{"OBJECT_NAME":"STARLINK-4630","OBJECT_ID":"2022-105AJ","EPOCH":"2026-03-03T05:45:02.235744","MEAN_MOTION":15.05649418,"ECCENTRICITY":0.000229,"INCLINATION":97.602,"RA_OF_ASC_NODE":304.8565,"ARG_OF_PERICENTER":78.4697,"MEAN_ANOMALY":281.6786,"EPHEMERIS_TYPE":0,"CLASSIFICATION_TYPE":"U","NORAD_CAT_ID":53680,"ELEMENT_SET_NO":999,"REV_AT_EPOCH":19233,"BSTAR":8.0569e-6,"MEAN_MOTION_DOT":5.5e-7,"MEAN_MOTION_DDOT":0},{"OBJECT_NAME":"STARLINK-4424","OBJECT_ID":"2022-105AK","EPOCH":"2026-03-03T06:16:03.974304","MEAN_MOTION":15.01261417,"ECCENTRICITY":0.0001912,"INCLINATION":97.6008,"RA_OF_ASC_NODE":303.9272,"ARG_OF_PERICENTER":44.6551,"MEAN_ANOMALY":315.4827,"EPHEMERIS_TYPE":0,"CLASSIFICATION_TYPE":"U","NORAD_CAT_ID":53681,"ELEMENT_SET_NO":999,"REV_AT_EPOCH":19227,"BSTAR":1.3357e-5,"MEAN_MOTION_DOT":1.13e-6,"MEAN_MOTION_DDOT":0},{"OBJECT_NAME":"STARLINK-4438","OBJECT_ID":"2022-105AL","EPOCH":"2026-03-03T06:12:55.865952","MEAN_MOTION":15.05655379,"ECCENTRICITY":0.0001914,"INCLINATION":97.6034,"RA_OF_ASC_NODE":304.8221,"ARG_OF_PERICENTER":61.8355,"MEAN_ANOMALY":298.3064,"EPHEMERIS_TYPE":0,"CLASSIFICATION_TYPE":"U","NORAD_CAT_ID":53682,"ELEMENT_SET_NO":999,"REV_AT_EPOCH":19233,"BSTAR":1.1234e-5,"MEAN_MOTION_DOT":1.01e-6,"MEAN_MOTION_DDOT":0},{"OBJECT_NAME":"STARLINK-4625","OBJECT_ID":"2022-105AM","EPOCH":"2026-03-03T06:24:25.452000","MEAN_MOTION":15.01254334,"ECCENTRICITY":0.0004618,"INCLINATION":97.5999,"RA_OF_ASC_NODE":303.9193,"ARG_OF_PERICENTER":58.6821,"MEAN_ANOMALY":301.4855,"EPHEMERIS_TYPE":0,"CLASSIFICATION_TYPE":"U","NORAD_CAT_ID":53683,"ELEMENT_SET_NO":999,"REV_AT_EPOCH":19227,"BSTAR":-5.2045e-5,"MEAN_MOTION_DOT":-7.27e-6,"MEAN_MOTION_DDOT":0},{"OBJECT_NAME":"STARLINK-4624","OBJECT_ID":"2022-105AN","EPOCH":"2026-03-03T05:12:05.803776","MEAN_MOTION":15.01255936,"ECCENTRICITY":0.0002613,"INCLINATION":97.6037,"RA_OF_ASC_NODE":303.9416,"ARG_OF_PERICENTER":86.2774,"MEAN_ANOMALY":273.8749,"EPHEMERIS_TYPE":0,"CLASSIFICATION_TYPE":"U","NORAD_CAT_ID":53684,"ELEMENT_SET_NO":999,"REV_AT_EPOCH":19224,"BSTAR":9.4303e-6,"MEAN_MOTION_DOT":6.3e-7,"MEAN_MOTION_DDOT":0},{"OBJECT_NAME":"STARLINK-4626","OBJECT_ID":"2022-105AP","EPOCH":"2026-03-03T06:13:45.343776","MEAN_MOTION":15.01273898,"ECCENTRICITY":0.0002552,"INCLINATION":97.6013,"RA_OF_ASC_NODE":303.9148,"ARG_OF_PERICENTER":55.6178,"MEAN_ANOMALY":304.5287,"EPHEMERIS_TYPE":0,"CLASSIFICATION_TYPE":"U","NORAD_CAT_ID":53685,"ELEMENT_SET_NO":999,"REV_AT_EPOCH":19227,"BSTAR":-0.00022796,"MEAN_MOTION_DOT":-2.986e-5,"MEAN_MOTION_DDOT":0},{"OBJECT_NAME":"STARLINK-4467","OBJECT_ID":"2022-105AQ","EPOCH":"2026-03-03T05:33:25.632288","MEAN_MOTION":15.01257408,"ECCENTRICITY":0.0002157,"INCLINATION":97.6025,"RA_OF_ASC_NODE":303.9384,"ARG_OF_PERICENTER":184.8317,"MEAN_ANOMALY":175.2886,"EPHEMERIS_TYPE":0,"CLASSIFICATION_TYPE":"U","NORAD_CAT_ID":53686,"ELEMENT_SET_NO":999,"REV_AT_EPOCH":19227,"BSTAR":0.00044116,"MEAN_MOTION_DOT":5.612e-5,"MEAN_MOTION_DDOT":0},{"OBJECT_NAME":"STARLINK-4569","OBJECT_ID":"2022-105AR","EPOCH":"2026-03-03T06:08:57.364800","MEAN_MOTION":15.0564842,"ECCENTRICITY":0.0002515,"INCLINATION":97.6024,"RA_OF_ASC_NODE":304.8269,"ARG_OF_PERICENTER":79.7415,"MEAN_ANOMALY":280.4095,"EPHEMERIS_TYPE":0,"CLASSIFICATION_TYPE":"U","NORAD_CAT_ID":53687,"ELEMENT_SET_NO":999,"REV_AT_EPOCH":19233,"BSTAR":7.8197e-6,"MEAN_MOTION_DOT":5.2e-7,"MEAN_MOTION_DDOT":0},{"OBJECT_NAME":"STARLINK-4571","OBJECT_ID":"2022-105AS","EPOCH":"2026-03-03T10:53:22.303968","MEAN_MOTION":15.01243327,"ECCENTRICITY":0.0001211,"INCLINATION":97.6022,"RA_OF_ASC_NODE":304.099,"ARG_OF_PERICENTER":97.9951,"MEAN_ANOMALY":262.141,"EPHEMERIS_TYPE":0,"CLASSIFICATION_TYPE":"U","NORAD_CAT_ID":53688,"ELEMENT_SET_NO":999,"REV_AT_EPOCH":19230,"BSTAR":-0.00016066,"MEAN_MOTION_DOT":-2.12e-5,"MEAN_MOTION_DDOT":0},{"OBJECT_NAME":"STARLINK-4570","OBJECT_ID":"2022-105AU","EPOCH":"2026-03-03T05:01:25.728384","MEAN_MOTION":15.01261436,"ECCENTRICITY":0.0003351,"INCLINATION":97.6026,"RA_OF_ASC_NODE":303.8169,"ARG_OF_PERICENTER":49.8872,"MEAN_ANOMALY":310.2646,"EPHEMERIS_TYPE":0,"CLASSIFICATION_TYPE":"U","NORAD_CAT_ID":53690,"ELEMENT_SET_NO":999,"REV_AT_EPOCH":19226,"BSTAR":4.2032e-5,"MEAN_MOTION_DOT":4.82e-6,"MEAN_MOTION_DDOT":0},{"OBJECT_NAME":"STARLINK-4560","OBJECT_ID":"2022-105AV","EPOCH":"2026-03-03T05:33:04.928256","MEAN_MOTION":15.0565671,"ECCENTRICITY":0.0002268,"INCLINATION":97.6022,"RA_OF_ASC_NODE":304.8432,"ARG_OF_PERICENTER":76.5863,"MEAN_ANOMALY":283.5616,"EPHEMERIS_TYPE":0,"CLASSIFICATION_TYPE":"U","NORAD_CAT_ID":53691,"ELEMENT_SET_NO":999,"REV_AT_EPOCH":19233,"BSTAR":-1.5132e-5,"MEAN_MOTION_DOT":-2.79e-6,"MEAN_MOTION_DDOT":0},{"OBJECT_NAME":"STARLINK-4572","OBJECT_ID":"2022-105AW","EPOCH":"2026-03-03T05:23:56.874912","MEAN_MOTION":15.20470987,"ECCENTRICITY":0.0002572,"INCLINATION":97.6205,"RA_OF_ASC_NODE":309.1161,"ARG_OF_PERICENTER":11.2997,"MEAN_ANOMALY":348.8295,"EPHEMERIS_TYPE":0,"CLASSIFICATION_TYPE":"U","NORAD_CAT_ID":53692,"ELEMENT_SET_NO":999,"REV_AT_EPOCH":19257,"BSTAR":0.0012145,"MEAN_MOTION_DOT":0.00026524,"MEAN_MOTION_DDOT":0}]
