STARLINK-4620           
1 53674U 22105AC  26062.20561831  .00000124  00000+0  14237-4 0  9994
2 53674  97.6022 303.8680 0004147  49.5246 310.6340 15.01261655192266
STARLINK-4617           
1 53675U 22105AD  26062.21747001  .00001272  00000+0  92362-4 0  9991
2 53675  97.6022 304.9058 0002279  78.1302 282.0180 15.05658368192330
STARLINK-4621           
1 53676U 22105AE  26062.20191391  .00000170  00000+0  17775-4 0  9997
2 53676  97.6009 303.8620 0003624  36.7369 323.4103 15.01261169192269
STARLINK-4579           
1 53677U 22105AF  26062.24237960 -.00000045  00000+0  11196-5 0  9999
2 53677  97.6020 304.8776 0001975  87.7039 272.4413 15.05647618192339
STARLINK-4632           
1 53679U 22105AH  26062.20917104 -.00000829  00000+0 -53244-4 0  9992
2 53679  97.6031 304.9140 0002462  78.5493 281.6010 15.05635785192330
STARLINK-4630           
1 53680U 22105AJ  26062.23960921  .00000055  00000+0  80569-5 0  9992
2 53680  97.6020 304.8565 0002290  78.4697 281.6786 15.05649418192332
STARLINK-4424           
1 53681U 22105AK  26062.26115711  .00000113  00000+0  13357-4 0  9990
2 53681  97.6008 303.9272 0001912  44.6551 315.4827 15.01261417192278
STARLINK-4438           
1 53682U 22105AL  26062.25897993  .00000101  00000+0  11234-4 0  9998
2 53682  97.6034 304.8221 0001914  61.8355 298.3064 15.05655379192334
STARLINK-4625           
1 53683U 22105AM  26062.26696125 -.00000727  00000+0 -52045-4 0  9995
2 53683  97.5999 303.9193 0004618  58.6821 301.4855 15.01254334192277
STARLINK-4624           
1 53684U 22105AN  26062.21673384  .00000063  00000+0  94303-5 0  9998
2 53684  97.6037 303.9416 0002613  86.2774 273.8749 15.01255936192247
STARLINK-4626           
1 53685U 22105AP  26062.25955259 -.00002986  00000+0 -22796-3 0  9990
2 53685  97.6013 303.9148 0002552  55.6178 304.5287 15.01273898192273
STARLINK-4467           
1 53686U 22105AQ  26062.23154667  .00005612  00000+0  44116-3 0  9990
2 53686  97.6025 303.9384 0002157 184.8317 175.2886 15.01257408192277
STARLINK-4569           
1 53687U 22105AR  26062.25621950  .00000052  00000+0  78197-5 0  9998
2 53687  97.6024 304.8269 0002515  79.7415 280.4095 15.05648420192338
STARLINK-4571           
1 53688U 22105AS  26062.45373037 -.00002120  00000+0 -16066-3 0  9996
2 53688  97.6022 304.0990 0001211  97.9951 262.1410 15.01243327192307
STARLINK-4570           
1 53690U 22105AU  26062.20932556  .00000482  00000+0  42032-4 0  9999
2 53690  97.6026 303.8169 0003351  49.8872 310.2646 15.01261436192266
STARLINK-4560           
1 53691U 22105AV  26062.23130704 -.00000279  00000+0 -15132-4 0  9995
2 53691  97.6022 304.8432 0002268  76.5863 283.5616 15.05656710192334
STARLINK-4572           
1 53692U 22105AW  26062.22496383  .00026524  00000+0  12145-2 0  9991
2 53692  97.6205 309.1161 0002572  11.2997 348.8295 15.20470987192578
